{
  "type": "FeatureCollection",
  "features": [
    {
      "type": "Feature",
      "properties": {
        "name": "Residence",
        "type": "residence"
      },
      "geometry": {
        "type": "Polygon",
        "coordinates": [[
          [-74.441969, 42.884473],
          [-74.4420862, 42.8848837],
          [-74.4420486, 42.8850685],
          [-74.4423148, 42.8851059],
          [-74.4425831, 42.8851099],
          [-74.4428406, 42.8850352],
          [-74.4430605, 42.8848426],
          [-74.4431141, 42.8846303],
          [-74.4430712, 42.8844888],
          [-74.4429478, 42.8843552],
          [-74.4428084, 42.8842451],
          [-74.4426474, 42.8841822],
          [-74.441969, 42.884473]
        ]]
      }
    },
    {
      "type": "Feature",
      "properties": {
        "name": "Arboretum Parcel #1",
        "type": "arboretum_parcel"
      },
      "geometry": {
        "type": "Polygon",
        "coordinates": [[
          [-74.4416788, 42.8857327],
          [-74.4432022, 42.8860199],
          [-74.4429448, 42.8867392],
          [-74.4532866, 42.8874451],
          [-74.448555, 42.88168],
          [-74.4426474, 42.8841822],
          [-74.4428084, 42.8842451],
          [-74.4429478, 42.8843552],
          [-74.4430712, 42.8844888],
          [-74.4431141, 42.8846303],
          [-74.4430605, 42.8848426],
          [-74.4428406, 42.8850352],
          [-74.4425831, 42.8851099],
          [-74.4423148, 42.8851059],
          [-74.4420486, 42.8850685],
          [-74.4416788, 42.8857327]
        ]]
      }
    },
    {
      "type": "Feature",
      "properties": {
        "name": "Arboretum Parcel #2",
        "type": "arboretum_parcel"
      },
      "geometry": {
        "type": "Polygon",
        "coordinates": [[
          [-74.441915, 42.884703],
          [-74.441279, 42.884434],
          [-74.438578, 42.885411],
          [-74.434465, 42.886861],
          [-74.434961, 42.887513],
          [-74.44102, 42.886615],
          [-74.4418507, 42.8851182],
          [-74.4419178, 42.8848627],
          [-74.441915, 42.884703]
        ]]
      }
    }
  ]
}
