{
  "type": "FeatureCollection",
  "features": [
    {
      "type": "Feature",
      "properties": {
        "name": "The Orboretum Property",
        "type": "property",
        "acres": 200,
        "description": "The Orboretum 200-acre property boundary"
      },
      "geometry": {
        "type": "Polygon",
        "coordinates": [[
          [-74.44218, 42.891113],
          [-74.445342, 42.8888366],
          [-74.4462582, 42.890028],
          [-74.4532866, 42.8874451],
          [-74.448555, 42.88168],
          [-74.441969, 42.884473],
          [-74.4420594, 42.884695],
          [-74.4420862, 42.8848837],
          [-74.4420486, 42.8850685],
          [-74.4403964, 42.8883583],
          [-74.4403578, 42.8884979],
          [-74.4403632, 42.8886158],
          [-74.4404329, 42.8887868],
          [-74.44218, 42.891113]
        ]]
      }
    }
  ]
}
