{
  "type": "FeatureCollection",
  "features": [
    {
      "type": "Feature",
      "properties": {
        "name": "Parking lot",
        "type": "parking"
      },
      "geometry": {
        "type": "Polygon",
        "coordinates": [[
          [-74.4418982, 42.8849244],
          [-74.4419178, 42.8848627],
          [-74.4419143, 42.8847239],
          [-74.441225, 42.884891],
          [-74.4413349, 42.8850855],
          [-74.4418982, 42.8849244]
        ]]
      }
    },
    {
      "type": "Feature",
      "properties": {
        "name": "Ancestral Cemetery",
        "type": "cemetery"
      },
      "geometry": {
        "type": "Polygon",
        "coordinates": [[
          [-74.4413349, 42.8850855],
          [-74.441225, 42.884891],
          [-74.4410933, 42.8849106],
          [-74.4406991, 42.8852428],
          [-74.4410612, 42.885398],
          [-74.4413349, 42.8850855]
        ]]
      }
    },
    {
      "type": "Feature",
      "properties": {
        "name": "future proposed trail",
        "type": "proposed_trail"
      },
      "geometry": {
        "type": "LineString",
        "coordinates": [
          [-74.4416461, 42.8849971],
          [-74.4417212, 42.8850639],
          [-74.4418124, 42.8850993],
          [-74.4418507, 42.8851182],
          [-74.442086, 42.8851701],
          [-74.4425098, 42.8852133],
          [-74.4426975, 42.8851936],
          [-74.4428745, 42.8851543],
          [-74.4430247, 42.8850796],
          [-74.443132, 42.885001],
          [-74.4432071, 42.8849106],
          [-74.4432769, 42.8848163],
          [-74.4433412, 42.8847259],
          [-74.4433681, 42.884663]
        ]
      }
    }
  ]
}
