{
  "type": "FeatureCollection",
  "features": [
    {
      "type": "Feature",
      "properties": {
        "id": 1,
        "name": "Parking Area",
        "type": "parking",
        "description": "Main parking across the street in tennis/basketball court lot",
        "capacity": "~20 spaces",
        "accessible": true,
        "amenities": "Restrooms, trash bins"
      },
      "geometry": {
        "type": "Point",
        "coordinates": [-74.441161, 42.883647]
      }
    },
    {
      "type": "Feature",
      "properties": {
        "id": 2,
        "name": "Trail Entrance",
        "type": "entrance",
        "description": "Primary trail start point",
        "accessible": true,
        "amenities": "Trail map kiosk, interpretive signage"
      },
      "geometry": {
        "type": "Point",
        "coordinates": [-74.440925, 42.884019]
      }
    },
    {
      "type": "Feature",
      "properties": {
        "id": 3,
        "name": "Vista Point",
        "type": "landmark",
        "description": "Elevated viewpoint with panoramic views",
        "amenities": "Bench"
      },
      "geometry": {
        "type": "Point",
        "coordinates": [-74.434961, 42.887513]
      }
    },
    {
      "type": "Feature",
      "properties": {
        "id": 4,
        "name": "Creek Overlook",
        "type": "landmark",
        "description": "View of Yatesville Creek",
        "amenities": "Bench, interpretive sign"
      },
      "geometry": {
        "type": "Point",
        "coordinates": [-74.434465, 42.886861]
      }
    },
    {
      "type": "Feature",
      "properties": {
        "id": 5,
        "name": "Rest Area A",
        "type": "rest_area",
        "description": "Shaded rest spot with seating",
        "amenities": "Bench, scenic view"
      },
      "geometry": {
        "type": "Point",
        "coordinates": [-74.441279, 42.884434]
      }
    },
    {
      "type": "Feature",
      "properties": {
        "id": 6,
        "name": "Rest Area B",
        "type": "rest_area",
        "description": "Secondary rest point along trail",
        "amenities": "Bench"
      },
      "geometry": {
        "type": "Point",
        "coordinates": [-74.438578, 42.885411]
      }
    },
    {
      "type": "Feature",
      "properties": {
        "id": 7,
        "name": "Forest Edge",
        "type": "landmark",
        "description": "Forest ecosystem transition zone",
        "notes": "Good location for ecological observation"
      },
      "geometry": {
        "type": "Point",
        "coordinates": [-74.439077, 42.881016]
      }
    },
    {
      "type": "Feature",
      "properties": {
        "id": 8,
        "name": "Historic Site",
        "type": "historic",
        "description": "Historic landmark area - Revolutionary War era",
        "amenities": "Interpretive marker"
      },
      "geometry": {
        "type": "Point",
        "coordinates": [-74.437121, 42.881877]
      }
    },
    {
      "type": "Feature",
      "properties": {
        "id": 9,
        "name": "North Trail Junction",
        "type": "trail_split",
        "description": "Trail branching point",
        "notes": "Routes split to north loop"
      },
      "geometry": {
        "type": "Point",
        "coordinates": [-74.441915, 42.884703]
      }
    },
    {
      "type": "Feature",
      "properties": {
        "id": 10,
        "name": "East Loop Junction",
        "type": "trail_split",
        "description": "East loop connection point",
        "notes": "Multiple route options available"
      },
      "geometry": {
        "type": "Point",
        "coordinates": [-74.44102, 42.886615]
      }
    },
    {
      "type": "Feature",
      "properties": {
        "id": 11,
        "name": "Trail Convergence",
        "type": "waypoint",
        "description": "Where trail loops reconnect",
        "notes": "Nearing return to parking area"
      },
      "geometry": {
        "type": "Point",
        "coordinates": [-74.441969, 42.884473]
      }
    },
    {
      "type": "Feature",
      "properties": {
        "id": 12,
        "name": "Heritage Garden Area",
        "type": "landmark",
        "description": "Mid-century heritage plantings from Maryanne Granger era",
        "collection": "heritage",
        "notes": "Japanese lilies, peonies, and garden phlox"
      },
      "geometry": {
        "type": "Point",
        "coordinates": [-74.4532866, 42.8874451]
      }
    },
    {
      "type": "Feature",
      "properties": {
        "id": 13,
        "name": "Northern Property Boundary",
        "type": "boundary",
        "description": "Property boundary marker (north)",
        "notes": "Adjacent to state forest"
      },
      "geometry": {
        "type": "Point",
        "coordinates": [-74.44218, 42.891113]
      }
    },
    {
      "type": "Feature",
      "properties": {
        "id": 14,
        "name": "Eastern Property Boundary",
        "type": "boundary",
        "description": "Property boundary marker (east)",
        "notes": "State forest corridor boundary"
      },
      "geometry": {
        "type": "Point",
        "coordinates": [-74.448555, 42.88168]
      }
    },
    {
      "type": "Feature",
      "properties": {
        "id": 15,
        "name": "State Forest Corridor",
        "type": "landmark",
        "description": "2,000-acre adjacent state forest",
        "notes": "Conservation area connected to property"
      },
      "geometry": {
        "type": "Point",
        "coordinates": [-74.4462582, 42.890028]
      }
    },
    {
      "type": "Feature",
      "properties": {
        "id": 16,
        "name": "Yatesville Creek Watershed",
        "type": "water",
        "description": "Watershed area marker - Yatesville Creek",
        "notes": "Flows to Mohawk River (priority watershed)"
      },
      "geometry": {
        "type": "Point",
        "coordinates": [-74.445342, 42.8888366]
      }
    }
  ]
}
