{
  "type": "FeatureCollection",
  "features": [
    {
      "type": "Feature",
      "properties": {
        "recipient": "Dante"
      },
      "geometry": {
        "type": "MultiPolygon",
        "coordinates": [
          [[
            [-74.4532866, 42.8874451],
            [-74.4412364, 42.8866425],
            [-74.4403578, 42.8884979],
            [-74.4403719, 42.8887155],
            [-74.4426947, 42.8887722],
            [-74.4433238, 42.8894885],
            [-74.4453366, 42.8888327],
            [-74.4463762, 42.8887939],
            [-74.4501303, 42.8886286],
            [-74.4532866, 42.8874451]
          ]],
          [[
            [-74.4390783, 42.8810219],
            [-74.4371223, 42.8818829],
            [-74.438578, 42.885411],
            [-74.441279, 42.884434],
            [-74.440925, 42.884019],
            [-74.441161, 42.883647],
            [-74.4390783, 42.8810219]
          ]],
          [[
            [-74.445342, 42.8888366],
            [-74.4461731, 42.8898676],
            [-74.4462582, 42.890028],
            [-74.4501303, 42.8886286],
            [-74.445342, 42.8888366]
          ]]
        ]
      }
    },
    {
      "type": "Feature",
      "properties": {
        "recipient": "Nick Bordieri"
      },
      "geometry": {
        "type": "Polygon",
        "coordinates": [[
          [-74.445342, 42.8888366],
          [-74.4414219, 42.8901091],
          [-74.44218, 42.891113],
          [-74.445342, 42.8888366]
        ]]
      }
    },
    {
      "type": "Feature",
      "properties": {
        "recipient": "Friend"
      },
      "geometry": {
        "type": "MultiPolygon",
        "coordinates": [
          [[
            [-74.4414219, 42.8901091],
            [-74.4433238, 42.8894885],
            [-74.4426828, 42.888785],
            [-74.4403719, 42.8887155],
            [-74.4414219, 42.8901091]
          ]],
          [[
            [-74.4412578, 42.8866542],
            [-74.4429448, 42.8867392],
            [-74.4432022, 42.8860199],
            [-74.4425414, 42.8858665],
            [-74.4416895, 42.8857051],
            [-74.4412578, 42.8866542]
          ]]
        ]
      }
    }
  ]
}
