{
  "type": "FeatureCollection",
  "features": [
    {
      "type": "Feature",
      "properties": {
        "name": "Retained Land - Main Property",
        "description": "Portion of main property not intended for sale"
      },
      "geometry": {
        "type": "Polygon",
        "coordinates": [[
          [-74.44218, 42.891113],
          [-74.4414219, 42.8901091],
          [-74.4403719, 42.8887155],
          [-74.4426828, 42.888785],
          [-74.4433238, 42.8894885],
          [-74.4414219, 42.8901091],
          [-74.445342, 42.8888366],
          [-74.4462582, 42.890028],
          [-74.4532866, 42.8874451],
          [-74.448555, 42.88168],
          [-74.441969, 42.884473],
          [-74.4420594, 42.884695],
          [-74.4420862, 42.8848837],
          [-74.4420486, 42.8850685],
          [-74.4403964, 42.8883583],
          [-74.4403578, 42.8884979],
          [-74.4403632, 42.8886158],
          [-74.4404329, 42.8887868],
          [-74.44218, 42.891113]
        ]]
      }
    },
    {
      "type": "Feature",
      "properties": {
        "name": "Retained Land - Across Street",
        "description": "Portion of across-street property not intended for sale"
      },
      "geometry": {
        "type": "Polygon",
        "coordinates": [[
          [-74.44102, 42.886615],
          [-74.4418507, 42.8851192],
          [-74.4419178, 42.8848637],
          [-74.441915, 42.884703],
          [-74.441279, 42.884434],
          [-74.440925, 42.884019],
          [-74.441161, 42.883647],
          [-74.439077, 42.881016],
          [-74.437121, 42.881877],
          [-74.438578, 42.885411],
          [-74.434465, 42.886861],
          [-74.434961, 42.887513],
          [-74.4412578, 42.8866542],
          [-74.4416895, 42.8857051],
          [-74.4425414, 42.8858665],
          [-74.4432022, 42.8860199],
          [-74.4429448, 42.8867392],
          [-74.44102, 42.886615]
        ]]
      }
    }
  ]
}
