{
  "type": "FeatureCollection",
  "features": [
    {
      "type": "Feature",
      "properties": {
        "name": "Main Loop Trail",
        "distance_miles": 1.5,
        "difficulty": "moderate",
        "surface": "stone",
        "date_surveyed": "2026-01-28",
        "description": "Primary hiking trail looping through the property, connecting diverse forest ecosystems and historic sites"
      },
      "geometry": {
        "type": "LineString",
        "coordinates": [
          [-74.4425043370575, 42.8847945481539],
          [-74.4427406229079, 42.8847918659449],
          [-74.4429410342127, 42.8847659658641],
          [-74.443203387782, 42.8846694063395],
          [-74.4435288570821, 42.8846597671509],
          [-74.4436075631529, 42.8846738487482],
          [-74.4438042864203, 42.8846725076437],
          [-74.4440502114594, 42.8846322745085],
          [-74.4444065261632, 42.884633615613],
          [-74.4444441609085, 42.8846048656851],
          [-74.4449637550861, 42.8845380619168],
          [-74.4453473109752, 42.8844307735562],
          [-74.4458949845284, 42.8845232259482],
          [-74.4460642989725, 42.8845088928938],
          [-74.4461834058166, 42.8845066297799],
          [-74.4463310111314, 42.8845349606127],
          [-74.4463423267007, 42.8845090605319],
          [-74.4463380519301, 42.884282162413],
          [-74.4464636966586, 42.8841019514948],
          [-74.446628652513, 42.8839577827603],
          [-74.4467932730913, 42.8838732093573],
          [-74.4473743066192, 42.8838385082781],
          [-74.4475813396275, 42.8839347325265],
          [-74.4478538352996, 42.8840183839202],
          [-74.4480063859373, 42.8841426037252],
          [-74.4480373989791, 42.8842890355736],
          [-74.4479602854699, 42.884361455217],
          [-74.447902534157, 42.8846370521933],
          [-74.4479294400662, 42.885040557012],
          [-74.4479927234352, 42.8850426524878],
          [-74.4480330403894, 42.8850810416043],
          [-74.4480405841023, 42.885154299438],
          [-74.4482416659594, 42.8853910043836],
          [-74.4485389720649, 42.8855914156884],
          [-74.4488674588501, 42.8859555255622],
          [-74.448940968141, 42.8861899673939],
          [-74.4490579795092, 42.8865463659167],
          [-74.4488055165857, 42.8867313545197],
          [-74.4484951347113, 42.886750549078],
          [-74.4484243076295, 42.8868990764022],
          [-74.4484988227487, 42.8870864119381],
          [-74.4485389720649, 42.8871169220656],
          [-74.448523465544, 42.887297552079],
          [-74.4484049454331, 42.8874003980309],
          [-74.4481781311333, 42.8874189220369],
          [-74.448098000139, 42.887506429106],
          [-74.4479762110859, 42.8875894099474],
          [-74.4479010254145, 42.8876562975347],
          [-74.4478193018585, 42.8877060860395],
          [-74.4477556832135, 42.8877399489284],
          [-74.4476578664035, 42.8877692855895],
          [-74.4474406074733, 42.8878119494766],
          [-74.4473642483354, 42.8878436330706],
          [-74.447080520913, 42.8878595586866],
          [-74.4470309838653, 42.8878464829177],
          [-74.4469226058573, 42.8878647554666],
          [-74.4467948656529, 42.8878709580749],
          [-74.4466844759881, 42.8878937568516],
          [-74.4466172531247, 42.8879220876843],
          [-74.4466185942292, 42.8879612311721],
          [-74.4465799536556, 42.8879797551781],
          [-74.4465690571815, 42.8880485706031],
          [-74.4465179275721, 42.8880205750465],
          [-74.4464823044837, 42.8883452899754],
          [-74.4462212920189, 42.8887118306011],
          [-74.4460469484329, 42.8888492099941],
          [-74.445846201852, 42.88892833516],
          [-74.445719551295, 42.8889628686011],
          [-74.4456311222166, 42.88897594437],
          [-74.4455064833164, 42.8888983279467],
          [-74.4454262685031, 42.8887757007033],
          [-74.4453900586814, 42.8886313643306],
          [-74.4453692715615, 42.888648211956],
          [-74.4453135319054, 42.8885816596448],
          [-74.4450179021806, 42.8884559310973],
          [-74.4447477534413, 42.8880526777357],
          [-74.4447552971542, 42.8879350796342],
          [-74.4446228630841, 42.8878899011761],
          [-74.4444144051522, 42.8876662719995],
          [-74.4441741798073, 42.887371564284],
          [-74.4440481998026, 42.8872945345938],
          [-74.4438127521425, 42.887265952304],
          [-74.443475548178, 42.8873620089144],
          [-74.4428553711623, 42.8874207660556],
          [-74.4427629187703, 42.8874107915908],
          [-74.4421162549406, 42.8874929342419],
          [-74.4419619441032, 42.8874577302486],
          [-74.441786929965, 42.8875160682946],
          [-74.4415400829166, 42.8874810319394],
          [-74.4414632208645, 42.8874064330012],
          [-74.4413379114121, 42.8873828798532],
          [-74.4412756338716, 42.8873679600656],
          [-74.4412459619343, 42.8873070236295],
          [-74.4413540046662, 42.8871433250606],
          [-74.4413918070495, 42.8869581688195],
          [-74.4415314495564, 42.8866836614907],
          [-74.4415189605206, 42.8865679912269],
          [-74.4415580201894, 42.8864925540984],
          [-74.4416648894548, 42.8862830903381],
          [-74.4416808988899, 42.8861915599555],
          [-74.4417575933039, 42.8861973434687],
          [-74.4417073857039, 42.8861068189144],
          [-74.4417647179216, 42.8861096687615],
          [-74.4418492075056, 42.8859727922827],
          [-74.441794808954, 42.8859096765518],
          [-74.4418545719236, 42.885875813663],
          [-74.4418203737587, 42.8858302161098],
          [-74.4418497942388, 42.88579124026],
          [-74.4418597687036, 42.8857618197799],
          [-74.4418271631002, 42.8857634123415],
          [-74.4419228006154, 42.8856837004423],
          [-74.4419008400291, 42.8855777531862],
          [-74.441961189732, 42.8855706285685],
          [-74.4419450126588, 42.8855380229652],
          [-74.4420224614441, 42.8853522799909],
          [-74.4420631136745, 42.8852516971529],
          [-74.4421314261854, 42.8850495256484],
          [-74.4421243015677, 42.884974507615],
          [-74.4421388860792, 42.8849422372878],
          [-74.442196637392, 42.8849134035408],
          [-74.4422312546521, 42.8848413191736],
          [-74.4422859046608, 42.8848063666373],
          [-74.442400150001, 42.8847885970026],
          [-74.4425043370575, 42.8847945481539]
        ]
      }
    }
  ]
}
