<?xml version="1.0" encoding="UTF-8"?>
<kml xmlns="http://www.opengis.net/kml/2.2">
  <Document>
    <name>Just Coordinates</name>
    <Style id="icon-1899-0288D1-nodesc-normal">
      <IconStyle>
        <color>ffd18802</color>
        <scale>1</scale>
        <Icon>
          <href>https://www.gstatic.com/mapspro/images/stock/503-wht-blank_maps.png</href>
        </Icon>
        <hotSpot x="32" xunits="pixels" y="64" yunits="insetPixels"/>
      </IconStyle>
      <LabelStyle>
        <scale>0</scale>
      </LabelStyle>
      <BalloonStyle>
        <text><![CDATA[<h3>$[name]</h3>]]></text>
      </BalloonStyle>
    </Style>
    <Style id="icon-1899-0288D1-nodesc-highlight">
      <IconStyle>
        <color>ffd18802</color>
        <scale>1</scale>
        <Icon>
          <href>https://www.gstatic.com/mapspro/images/stock/503-wht-blank_maps.png</href>
        </Icon>
        <hotSpot x="32" xunits="pixels" y="64" yunits="insetPixels"/>
      </IconStyle>
      <LabelStyle>
        <scale>1</scale>
      </LabelStyle>
      <BalloonStyle>
        <text><![CDATA[<h3>$[name]</h3>]]></text>
      </BalloonStyle>
    </Style>
    <StyleMap id="icon-1899-0288D1-nodesc">
      <Pair>
        <key>normal</key>
        <styleUrl>#icon-1899-0288D1-nodesc-normal</styleUrl>
      </Pair>
      <Pair>
        <key>highlight</key>
        <styleUrl>#icon-1899-0288D1-nodesc-highlight</styleUrl>
      </Pair>
    </StyleMap>
    <Style id="line-000000-1200-nodesc-normal">
      <LineStyle>
        <color>ff000000</color>
        <width>1.2</width>
      </LineStyle>
      <BalloonStyle>
        <text><![CDATA[<h3>$[name]</h3>]]></text>
      </BalloonStyle>
    </Style>
    <Style id="line-000000-1200-nodesc-highlight">
      <LineStyle>
        <color>ff000000</color>
        <width>1.8</width>
      </LineStyle>
      <BalloonStyle>
        <text><![CDATA[<h3>$[name]</h3>]]></text>
      </BalloonStyle>
    </Style>
    <StyleMap id="line-000000-1200-nodesc">
      <Pair>
        <key>normal</key>
        <styleUrl>#line-000000-1200-nodesc-normal</styleUrl>
      </Pair>
      <Pair>
        <key>highlight</key>
        <styleUrl>#line-000000-1200-nodesc-highlight</styleUrl>
      </Pair>
    </StyleMap>
    <Style id="line-7CB342-5000-nodesc-normal">
      <LineStyle>
        <color>ff42b37c</color>
        <width>5</width>
      </LineStyle>
      <BalloonStyle>
        <text><![CDATA[<h3>$[name]</h3>]]></text>
      </BalloonStyle>
    </Style>
    <Style id="line-7CB342-5000-nodesc-highlight">
      <LineStyle>
        <color>ff42b37c</color>
        <width>7.5</width>
      </LineStyle>
      <BalloonStyle>
        <text><![CDATA[<h3>$[name]</h3>]]></text>
      </BalloonStyle>
    </Style>
    <StyleMap id="line-7CB342-5000-nodesc">
      <Pair>
        <key>normal</key>
        <styleUrl>#line-7CB342-5000-nodesc-normal</styleUrl>
      </Pair>
      <Pair>
        <key>highlight</key>
        <styleUrl>#line-7CB342-5000-nodesc-highlight</styleUrl>
      </Pair>
    </StyleMap>
    <Style id="poly-BDBDBD-1200-107-nodesc-normal">
      <LineStyle>
        <color>ffbdbdbd</color>
        <width>1.2</width>
      </LineStyle>
      <PolyStyle>
        <color>6bbdbdbd</color>
        <fill>1</fill>
        <outline>1</outline>
      </PolyStyle>
      <BalloonStyle>
        <text><![CDATA[<h3>$[name]</h3>]]></text>
      </BalloonStyle>
    </Style>
    <Style id="poly-BDBDBD-1200-107-nodesc-highlight">
      <LineStyle>
        <color>ffbdbdbd</color>
        <width>1.8</width>
      </LineStyle>
      <PolyStyle>
        <color>6bbdbdbd</color>
        <fill>1</fill>
        <outline>1</outline>
      </PolyStyle>
      <BalloonStyle>
        <text><![CDATA[<h3>$[name]</h3>]]></text>
      </BalloonStyle>
    </Style>
    <StyleMap id="poly-BDBDBD-1200-107-nodesc">
      <Pair>
        <key>normal</key>
        <styleUrl>#poly-BDBDBD-1200-107-nodesc-normal</styleUrl>
      </Pair>
      <Pair>
        <key>highlight</key>
        <styleUrl>#poly-BDBDBD-1200-107-nodesc-highlight</styleUrl>
      </Pair>
    </StyleMap>
    <Style id="poly-BDBDBD-1200-41-nodesc-normal">
      <LineStyle>
        <color>ffbdbdbd</color>
        <width>1.2</width>
      </LineStyle>
      <PolyStyle>
        <color>29bdbdbd</color>
        <fill>1</fill>
        <outline>1</outline>
      </PolyStyle>
      <BalloonStyle>
        <text><![CDATA[<h3>$[name]</h3>]]></text>
      </BalloonStyle>
    </Style>
    <Style id="poly-BDBDBD-1200-41-nodesc-highlight">
      <LineStyle>
        <color>ffbdbdbd</color>
        <width>1.8</width>
      </LineStyle>
      <PolyStyle>
        <color>29bdbdbd</color>
        <fill>1</fill>
        <outline>1</outline>
      </PolyStyle>
      <BalloonStyle>
        <text><![CDATA[<h3>$[name]</h3>]]></text>
      </BalloonStyle>
    </Style>
    <StyleMap id="poly-BDBDBD-1200-41-nodesc">
      <Pair>
        <key>normal</key>
        <styleUrl>#poly-BDBDBD-1200-41-nodesc-normal</styleUrl>
      </Pair>
      <Pair>
        <key>highlight</key>
        <styleUrl>#poly-BDBDBD-1200-41-nodesc-highlight</styleUrl>
      </Pair>
    </StyleMap>
    <Placemark>
      <name>hiking trail Jan 28 2026</name>
      <styleUrl>#line-7CB342-5000-nodesc</styleUrl>
      <LineString>
        <tessellate>1</tessellate>
        <coordinates>
          -74.4425043370575,42.8847945481539,0
          -74.4427406229079,42.8847918659449,0
          -74.4429410342127,42.8847659658641,0
          -74.443203387782,42.8846694063395,0
          -74.4435288570821,42.8846597671509,0
          -74.4436075631529,42.8846738487482,0
          -74.4438042864203,42.8846725076437,0
          -74.4440502114594,42.8846322745085,0
          -74.4444065261632,42.884633615613,0
          -74.4444441609085,42.8846048656851,0
          -74.4449637550861,42.8845380619168,0
          -74.4453473109752,42.8844307735562,0
          -74.4458949845284,42.8845232259482,0
          -74.4460642989725,42.8845088928938,0
          -74.4461834058166,42.8845066297799,0
          -74.4463310111314,42.8845349606127,234.256256
          -74.4463423267007,42.8845090605319,0
          -74.4463380519301,42.884282162413,0
          -74.4464636966586,42.8841019514948,0
          -74.446628652513,42.8839577827603,0
          -74.4467932730913,42.8838732093573,0
          -74.4473743066192,42.8838385082781,0
          -74.4475813396275,42.8839347325265,0
          -74.4478538352996,42.8840183839202,0
          -74.4480063859373,42.8841426037252,0
          -74.4480373989791,42.8842890355736,0
          -74.4479602854699,42.884361455217,0
          -74.447902534157,42.8846370521933,0
          -74.4479294400662,42.885040557012,0
          -74.4479927234352,42.8850426524878,0
          -74.4480330403894,42.8850810416043,227.755692
          -74.4480405841023,42.885154299438,0
          -74.4482416659594,42.8853910043836,0
          -74.4485389720649,42.8855914156884,0
          -74.4488674588501,42.8859555255622,0
          -74.448940968141,42.8861899673939,220.952866
          -74.4490579795092,42.8865463659167,0
          -74.4488055165857,42.8867313545197,0
          -74.4484951347113,42.886750549078,0
          -74.4484243076295,42.8868990764022,0
          -74.4484988227487,42.8870864119381,0
          -74.4485389720649,42.8871169220656,0
          -74.448523465544,42.887297552079,0
          -74.4484049454331,42.8874003980309,0
          -74.4481781311333,42.8874189220369,0
          -74.448098000139,42.887506429106,0
          -74.4479762110859,42.8875894099474,0
          -74.4479010254145,42.8876562975347,0
          -74.4478193018585,42.8877060860395,0
          -74.4477556832135,42.8877399489284,0
          -74.4476578664035,42.8877692855895,0
          -74.4474406074733,42.8878119494766,0
          -74.4473642483354,42.8878436330706,0
          -74.447080520913,42.8878595586866,0
          -74.4470309838653,42.8878464829177,0
          -74.4469226058573,42.8878647554666,0
          -74.4467948656529,42.8878709580749,0
          -74.4466844759881,42.8878937568516,0
          -74.4466172531247,42.8879220876843,0
          -74.4466185942292,42.8879612311721,0
          -74.4465799536556,42.8879797551781,0
          -74.4465690571815,42.8880485706031,0
          -74.4465179275721,42.8880205750465,0
          -74.4464823044837,42.8883452899754,0
          -74.4462212920189,42.8887118306011,0
          -74.4460469484329,42.8888492099941,0
          -74.445846201852,42.88892833516,0
          -74.445719551295,42.8889628686011,0
          -74.4456311222166,42.88897594437,0
          -74.4455064833164,42.8888983279467,0
          -74.4454262685031,42.8887757007033,0
          -74.4453900586814,42.8886313643306,0
          -74.4453692715615,42.888648211956,0
          -74.4453135319054,42.8885816596448,0
          -74.4450179021806,42.8884559310973,0
          -74.4447477534413,42.8880526777357,0
          -74.4447552971542,42.8879350796342,0
          -74.4446228630841,42.8878899011761,0
          -74.4444144051522,42.8876662719995,0
          -74.4441741798073,42.887371564284,0
          -74.4440481998026,42.8872945345938,0
          -74.4438127521425,42.887265952304,0
          -74.443475548178,42.8873620089144,0
          -74.4428553711623,42.8874207660556,0
          -74.4427629187703,42.8874107915908,0
          -74.4421162549406,42.8874929342419,0
          -74.4419619441032,42.8874577302486,0
          -74.441786929965,42.8875160682946,0
          -74.4415400829166,42.8874810319394,0
          -74.4414632208645,42.8874064330012,0
          -74.4413379114121,42.8873828798532,0
          -74.4412756338716,42.8873679600656,0
          -74.4412459619343,42.8873070236295,210.902802
          -74.4413540046662,42.8871433250606,0
          -74.4413918070495,42.8869581688195,0
          -74.4415314495564,42.8866836614907,0
          -74.4415189605206,42.8865679912269,224.04657
          -74.4415580201894,42.8864925540984,0
          -74.4416648894548,42.8862830903381,0
          -74.4416808988899,42.8861915599555,0
          -74.4417575933039,42.8861973434687,0
          -74.4417073857039,42.8861068189144,0
          -74.4417647179216,42.8861096687615,0
          -74.4418492075056,42.8859727922827,0
          -74.441794808954,42.8859096765518,0
          -74.4418545719236,42.885875813663,0
          -74.4418203737587,42.8858302161098,0
          -74.4418497942388,42.88579124026,0
          -74.4418597687036,42.8857618197799,0
          -74.4418271631002,42.8857634123415,0
          -74.4419228006154,42.8856837004423,0
          -74.4419008400291,42.8855777531862,0
          -74.441961189732,42.8855706285685,0
          -74.4419450126588,42.8855380229652,0
          -74.4420224614441,42.8853522799909,0
          -74.4420631136745,42.8852516971529,0
          -74.4421314261854,42.8850495256484,0
          -74.4421243015677,42.884974507615,0
          -74.4421388860792,42.8849422372878,0
          -74.442196637392,42.8849134035408,0
          -74.4422312546521,42.8848413191736,0
          -74.4422859046608,42.8848063666373,0
          -74.442400150001,42.8847885970026,0
          -74.4425043370575,42.8847945481539,0
        </coordinates>
      </LineString>
    </Placemark>
    <Placemark>
      <name>42.883647	-74.441161</name>
      <styleUrl>#icon-1899-0288D1-nodesc</styleUrl>
      <Point>
        <coordinates>
          -74.441161,42.883647,0
        </coordinates>
      </Point>
    </Placemark>
    <Placemark>
      <name>42.884019	-74.440925</name>
      <styleUrl>#icon-1899-0288D1-nodesc</styleUrl>
      <Point>
        <coordinates>
          -74.440925,42.884019,0
        </coordinates>
      </Point>
    </Placemark>
    <Placemark>
      <name>42.887513	-74.434961</name>
      <styleUrl>#icon-1899-0288D1-nodesc</styleUrl>
      <Point>
        <coordinates>
          -74.434961,42.887513,0
        </coordinates>
      </Point>
    </Placemark>
    <Placemark>
      <name>42.886861	-74.434465</name>
      <styleUrl>#icon-1899-0288D1-nodesc</styleUrl>
      <Point>
        <coordinates>
          -74.434465,42.886861,0
        </coordinates>
      </Point>
    </Placemark>
    <Placemark>
      <name>42.884434	-74.441279</name>
      <styleUrl>#icon-1899-0288D1-nodesc</styleUrl>
      <Point>
        <coordinates>
          -74.441279,42.884434,0
        </coordinates>
      </Point>
    </Placemark>
    <Placemark>
      <name>42.885411	-74.438578</name>
      <styleUrl>#icon-1899-0288D1-nodesc</styleUrl>
      <Point>
        <coordinates>
          -74.438578,42.885411,0
        </coordinates>
      </Point>
    </Placemark>
    <Placemark>
      <name>42.881016	-74.439077</name>
      <styleUrl>#icon-1899-0288D1-nodesc</styleUrl>
      <Point>
        <coordinates>
          -74.439077,42.881016,0
        </coordinates>
      </Point>
    </Placemark>
    <Placemark>
      <name>42.881877	-74.437121</name>
      <styleUrl>#icon-1899-0288D1-nodesc</styleUrl>
      <Point>
        <coordinates>
          -74.437121,42.881877,0
        </coordinates>
      </Point>
    </Placemark>
    <Placemark>
      <name>42.884703	-74.441915</name>
      <styleUrl>#icon-1899-0288D1-nodesc</styleUrl>
      <Point>
        <coordinates>
          -74.441915,42.884703,0
        </coordinates>
      </Point>
    </Placemark>
    <Placemark>
      <name>42.886615	-74.44102</name>
      <styleUrl>#icon-1899-0288D1-nodesc</styleUrl>
      <Point>
        <coordinates>
          -74.44102,42.886615,0
        </coordinates>
      </Point>
    </Placemark>
    <Placemark>
      <name>42.884473	-74.441969</name>
      <styleUrl>#icon-1899-0288D1-nodesc</styleUrl>
      <Point>
        <coordinates>
          -74.441969,42.884473,0
        </coordinates>
      </Point>
    </Placemark>
    <Placemark>
      <name>42.8874451	-74.4532866</name>
      <styleUrl>#icon-1899-0288D1-nodesc</styleUrl>
      <Point>
        <coordinates>
          -74.4532866,42.8874451,0
        </coordinates>
      </Point>
    </Placemark>
    <Placemark>
      <name>42.891113	-74.44218</name>
      <styleUrl>#icon-1899-0288D1-nodesc</styleUrl>
      <Point>
        <coordinates>
          -74.44218,42.891113,0
        </coordinates>
      </Point>
    </Placemark>
    <Placemark>
      <name>42.88168	-74.448555</name>
      <styleUrl>#icon-1899-0288D1-nodesc</styleUrl>
      <Point>
        <coordinates>
          -74.448555,42.88168,0
        </coordinates>
      </Point>
    </Placemark>
    <Placemark>
      <name>42.890028	-74.4462582</name>
      <styleUrl>#icon-1899-0288D1-nodesc</styleUrl>
      <Point>
        <coordinates>
          -74.4462582,42.890028,0
        </coordinates>
      </Point>
    </Placemark>
    <Placemark>
      <name>42.8888366	-74.445342</name>
      <styleUrl>#icon-1899-0288D1-nodesc</styleUrl>
      <Point>
        <coordinates>
          -74.445342,42.8888366,0
        </coordinates>
      </Point>
    </Placemark>
    <Placemark>
      <name>MK total 2</name>
      <styleUrl>#poly-BDBDBD-1200-107-nodesc</styleUrl>
      <Polygon>
        <outerBoundaryIs>
          <LinearRing>
            <tessellate>1</tessellate>
            <coordinates>
              -74.44102,42.886615,0
              -74.4418507,42.8851192,0
              -74.4419178,42.8848637,0
              -74.441915,42.884703,0
              -74.441279,42.884434,0
              -74.440925,42.884019,0
              -74.441161,42.883647,0
              -74.439077,42.881016,0
              -74.437121,42.881877,0
              -74.438578,42.885411,0
              -74.434465,42.886861,0
              -74.434961,42.887513,0
              -74.44102,42.886615,0
            </coordinates>
          </LinearRing>
        </outerBoundaryIs>
      </Polygon>
    </Placemark>
    <Placemark>
      <name>MK Total</name>
      <styleUrl>#poly-BDBDBD-1200-41-nodesc</styleUrl>
      <Polygon>
        <outerBoundaryIs>
          <LinearRing>
            <tessellate>1</tessellate>
            <coordinates>
              -74.44218,42.891113,0
              -74.445342,42.8888366,0
              -74.4462582,42.890028,0
              -74.4532866,42.8874451,0
              -74.448555,42.88168,0
              -74.441969,42.884473,0
              -74.4420594,42.884695,0
              -74.4420862,42.8848837,0
              -74.4420486,42.8850685,0
              -74.4403964,42.8883583,0
              -74.4403578,42.8884979,0
              -74.4403632,42.8886158,0
              -74.4404329,42.8887868,0
              -74.44218,42.891113,0
            </coordinates>
          </LinearRing>
        </outerBoundaryIs>
      </Polygon>
    </Placemark>
    <Placemark>
      <name>Point 30</name>
      <styleUrl>#icon-1899-0288D1-nodesc</styleUrl>
      <Point>
        <coordinates>
          -74.4384827,42.8851742,0
        </coordinates>
      </Point>
    </Placemark>
    <Placemark>
      <name>Point 31</name>
      <styleUrl>#icon-1899-0288D1-nodesc</styleUrl>
      <Point>
        <coordinates>
          -74.4409651,42.8872176,0
        </coordinates>
      </Point>
    </Placemark>
    <Placemark>
      <name>Point 32</name>
      <styleUrl>#icon-1899-0288D1-nodesc</styleUrl>
      <Point>
        <coordinates>
          -74.4414916,42.8901956,0
        </coordinates>
      </Point>
    </Placemark>
    <Placemark>
      <name>Point 33</name>
      <styleUrl>#icon-1899-0288D1-nodesc</styleUrl>
      <Point>
        <coordinates>
          -74.4408202,42.889272,0
        </coordinates>
      </Point>
    </Placemark>
    <Placemark>
      <name>Point 34</name>
      <styleUrl>#icon-1899-0288D1-nodesc</styleUrl>
      <Point>
        <coordinates>
          -74.4491754,42.8889549,0
        </coordinates>
      </Point>
    </Placemark>
    <Placemark>
      <name><![CDATA[george's driveway]]></name>
      <styleUrl>#line-000000-1200-nodesc</styleUrl>
      <LineString>
        <tessellate>1</tessellate>
        <coordinates>
          -74.4412657,42.8861689,0
          -74.4401928,42.886106,0
          -74.4392486,42.8858545,0
          -74.4383903,42.8862161,0
          -74.4375749,42.8866249,0
          -74.4359441,42.8869707,0
          -74.435279,42.8870494,0
        </coordinates>
      </LineString>
    </Placemark>
    <Placemark>
      <name><![CDATA[mallory's driveway]]></name>
      <styleUrl>#line-000000-1200-nodesc</styleUrl>
      <LineString>
        <tessellate>1</tessellate>
        <coordinates>
          -74.4392486,42.8858545,0
          -74.4389911,42.8850055,0
        </coordinates>
      </LineString>
    </Placemark>
  </Document>
</kml>
